STARLINK-1983_new
1 17630C 21012L   21326.11474294  .00006183  00000-0  41419-3 0  3266
2 17630  53.0539 253.2098 0001689  73.2688   4.2837 15.06396809    16
STARLINK-1983_old
1 27630C 21012L   21325.16578118  .00007644  00000-0  51227-3 0  3250
2 27630  53.0543 257.4695 0001669  72.1167 256.3494 15.06384709    13
